#dP2024 11 26 18  0  0.00000000      96 __u+U IGS20 EXT  IAC
## 2342 237600.00000000   900.00000000 60640 0.7500000000000
+   52   G02G03G04G05G06G07G08G09G10G11G12G13G14G15G16G17G18
+        G19G20G21G22G23G24G25G26G27G28G29G30G31G32R01R02R03
+        R04R05R07R08R09R11R12R14R15R16R17R18R19R20R21R22R24
+        R26  0  0  0  0  0  0  0  0  0  0  0  0  0  0  0  0
+          0  0  0  0  0  0  0  0  0  0  0  0  0  0  0  0  0
++         7  7  6  6  7  6  5  7  6  6  6  6  7  7  6  7  7
++         6  6  7  7  8  8  7  6  8  6  7  6  8  7  9  7  9
++         8  9  8  8  8  9  8  8  8  7  7  7  7  8  7  9  8
++         7  0  0  0  0  0  0  0  0  0  0  0  0  0  0  0  0
++         0  0  0  0  0  0  0  0  0  0  0  0  0  0  0  0  0
%c M  cc GPS ccc cccc cccc cccc cccc ccccc ccccc ccccc ccccc
%c cc cc ccc ccc cccc cccc cccc cccc ccccc ccccc ccccc ccccc
%f  0.0000000  0.000000000  0.00000000000  0.000000000000000
%f  0.0000000  0.000000000  0.00000000000  0.000000000000000
%i    0    0    0    0      0      0      0      0         0
%i    0    0    0    0      0      0      0      0         0
/* IAC                                ULTRA-RAPID PREDICTION
/* S/V CLOCKS ARE ALIGNED TO GNSS TIME                      
/* G:C1WC2W R:C1PC2P E:C1XC5X C:C2IC6I J:C1CC2S             
/* PCV:IGS20_2317 OL/AL:FES2004  NONE     YN ORB:CoN CLK:CoN
*  2024 11 26 21  0  0.00000000
PG02   8071.434420 -18804.326373 -16258.120618   -305.587142
PG03  -4842.580145 -17901.534504 -19220.743906    610.216425
PG04    425.325957 -26424.482340   1637.128116    486.152590
PG05 -11174.639326  10533.081649  21502.447602   -194.211288
PG06 -23584.443084   3658.564872 -11706.390071   -145.370223
PG07  -9264.931573 -12791.588599  21909.881580    -18.034645
PG08   6727.065391 -23421.526601   9881.607554    423.924576
PG09  -7103.252042 -23448.033493  10075.695377    461.425381
PG10  23985.330749   9886.342494  -6253.024999   -211.067417
PG11 -23425.694618  12382.771894   1266.052611   -751.485735
PG12   -660.202246  17130.053978 -20587.136658   -554.644010
PG13 -13223.565116  17183.583836  14941.799329    687.651230
PG14 -23385.724336 -12536.808088  -2815.134808    548.104723
PG15  -3296.397046  24524.417375   8925.057288    232.511870
PG16  16461.389340  -5201.746128  19956.499301   -118.245874
PG17 -13220.021788 -10032.453290 -20274.560048    543.213976
PG18  11062.062709  10814.777925  21647.695438   -660.585316
PG19 -15308.771515    743.669830 -21799.868994    567.323712
PG20 -20820.061349   4053.991855  15977.786592    368.399107
PG21  13295.960845 -18851.848560 -11735.956784     96.482699
PG22 -22803.681399  -7838.458244 -10384.677995    -82.320937
PG23  19585.980096  16691.467887   7083.506425    371.461068
PG24  -8942.718557  19884.419796 -15352.924520   -477.799355
PG25  13514.006880  18955.567449 -13381.529781    498.689233
PG26  23611.926085   1540.244899  12266.520575     12.423048
PG27  12600.289962 -14699.423760  17685.441461    -34.571153
PG28  22776.252343  -2466.955786 -13459.344147   -490.993461
PG29   4494.590896  24121.421334   9970.737689   -560.707324
PG30 -19455.167895  -4328.996962  17831.328655   -273.737854
PG31  24692.093090  -9629.516587  -3940.662638   -221.062497
PG32  14586.694366   6299.031575 -21095.164318   -568.059308
PR01  10337.524215  -3485.171264 -23059.469736    105.729028
PR02   1927.591720 -18927.030313 -16908.642625    -39.395354
PR03  -7935.611690 -24185.215440   -928.010599    112.122589
PR04 -12725.966440 -16235.926643  15013.755314    265.778530
PR05 -11019.392579    415.672531  23006.404213    141.308222
PR07   8062.554644  24226.799067    629.938433     95.754101
PR08  12952.447800  15983.759886 -15053.707345     -6.224533
PR09 -10244.130009   9187.542309 -21479.916255    222.802138
PR11  21762.381338   8747.126942 -10000.014810      6.062761
PR12  23656.164595   -273.192132   9575.725400     47.686735
PR14  -8526.679533 -11833.614793  20938.660272     27.287028
PR15 -22636.779308  -8305.777703   8345.700422     73.702311
PR16 -23726.862092    173.622744  -9404.593126     31.094416
PR17   2437.824850 -16342.761052 -19433.909283    143.362191
PR18 -10323.493512  -4095.785501 -22943.689372    173.817960
PR19 -17885.186013   8141.490233 -16250.357591   -299.860841
PR20 -16112.025588  19382.057239   4062.273894   -122.427937
PR21  -3421.461805  16767.049964  18911.051011   -154.642589
PR22  11353.189092   3590.711764  22588.948009    -22.572959
PR24  14864.683999 -20254.485249  -4450.172361    -81.718969
PR26  12847.206348  17241.415798 -13694.511283   -133.267637
*  2024 11 26 21 15  0.00000000
PG02   9683.194571 -19699.913962 -14216.985814   -305.579354
PG03  -2870.536472 -16853.490884 -20521.309563    610.225175
PG04    678.021823 -26439.231626  -1238.052000    486.158311
PG05 -13341.251955   9382.112658  20800.151112   -194.212299
PG06 -22365.793266   2812.829270 -14067.831509   -145.397065
PG07  -7191.156988 -13994.937151  21913.494850    -18.032930
PG08   7065.250439 -22132.270160  12329.271850    423.933358
PG09  -6895.918841 -24473.089211   7462.200510    461.440556
PG10  24407.879119  10303.419808  -3435.973903   -211.080722
PG11 -23519.742090  12154.312045  -1603.606681   -751.486754
PG12  -2651.993320  15895.293621 -21408.031047   -554.646157
PG13 -13144.077691  15309.520031  16911.574448    687.652589
PG14 -23384.418300 -12863.778374    -10.833316    548.111846
PG15  -3804.093778  23352.778570  11395.831932    232.515950
PG16  18275.645573  -3837.369350  18708.394521   -118.237179
PG17 -12987.758190 -12364.069896 -19110.085452    543.200352
PG18   8906.822959  12048.447198  21968.358580   -660.585389
PG19 -15100.938363  -1719.545205 -21928.044935    567.327617
PG20 -22363.011475   3305.119835  13909.105742    368.398810
PG21  14516.486239 -19355.053270  -9188.350256     96.481825
PG22 -23557.962842  -8678.781952  -7778.985120    -82.323415
PG23  18670.426704  16389.229766   9750.243821    371.468125
PG24 -10376.872347  20613.313811 -13248.184312   -477.797082
PG25  12024.080773  18366.843258 -15489.263679    498.688894
PG26  24669.161759   2319.390965   9901.396156     12.410970
PG27  12803.312540 -12523.648810  19167.471365    -34.571019
PG28  21474.569810  -1420.904774 -15584.390762   -491.003705
PG29   4205.701133  25101.922947   7328.261665   -560.704624
PG30 -17730.207331  -5522.899386  19231.877129   -273.730727
PG31  24306.425725  -9143.177145  -6675.911426   -221.061886
PG32  14565.978231   8707.175121 -20263.201322   -568.054268
PR01  11441.613711   -881.241024 -22782.515169    105.730211
PR02   2604.290491 -16805.340553 -18939.323704    -39.395331
PR03  -7971.290664 -23830.173592  -4134.057282    112.123181
PR04 -13452.601416 -17768.891016  12412.956395    265.780005
PR05 -12019.567083  -2201.909629  22393.138282    141.308715
PR07   8124.857076  23913.560300   3832.090674     95.754696
PR08  13688.429503  17530.343636 -12472.855015     -6.224557
PR09 -12800.745170   8916.660266 -20191.727127    222.804040
PR11  20387.586070   8418.338628 -12789.928072      6.062037
PR12  24657.275675   -248.506825   6576.150827     47.687079
PR14  -5910.512866 -11418.280974  22040.863429     27.287062
PR15 -21462.243584  -8007.369294  11242.021374     73.701830
PR16 -24712.287554    175.364650  -6386.488530     31.094617
PR17   3796.355466 -18179.903476 -17492.510926    143.365153
PR18  -8471.189562  -6270.290373 -23205.723185    173.819583
PR19 -16347.379698   6640.952897 -18408.795015   -299.862034
PR20 -16150.869145  19751.415207    838.557522   -122.428449
PR21  -4741.642066  18542.218045  16853.897994   -154.645531
PR22   9485.814483   5685.307289  23017.476227    -22.583961
PR24  14974.130097 -20624.099383  -1263.689574    -81.720366
PR26  13532.586160  18612.209477 -10971.826951   -133.267412
EOF
